*******************************************************************************
Ephemeris / WWW_USER Fri Mar  7 11:18:06 2025 Pasadena, USA      / Horizons    
*******************************************************************************
Target body name: (2018 VC)                       {source: JPL#21}
Center body name: Earth (399)                     {source: DE441}
Center-site name: Mauna Kea
*******************************************************************************
Start time      : A.D. 2018-Sep-26 04:24:00.0000 UT      
Stop  time      : A.D. 2018-Sep-26 16:02:00.0000 UT      
Step-size       : 1 minutes
*******************************************************************************
Target pole/equ : undefined
Target radii    : undefined                                                    
Center geodetic : 204.5278, 19.8260847, 4.21024   {E-lon(deg),Lat(deg),Alt(km)}
Center cylindric: 204.5278, 6006.35451, 2151.0229 {E-lon(deg),Dxy(km),Dz(km)}
Center pole/equ : ITRF93                          {East-longitude positive}
Center radii    : 6378.137, 6378.137, 6356.752 km {Equator_a, b, pole_c}       
Target primary  : Sun
Vis. interferer : MOON (R_eq= 1737.400) km        {source: DE441}
Rel. light bend : Sun                             {source: DE441}
Rel. lght bnd GM: 1.3271E+11 km^3/s^2                                          
Small-body perts: Yes                             {source: SB441-N16}
Atmos refraction: NO (AIRLESS)
RA format       : HMS
Time format     : CAL 
Calendar mode   : Mixed Julian/Gregorian
RTS-only print  : NO       
EOP file        : eop.250306.p250602                                           
EOP coverage    : DATA-BASED 1962-JAN-20 TO 2025-MAR-06. PREDICTS-> 2025-JUN-01
Units conversion: 1 au= 149597870.700 km, c= 299792.458 km/s, 1 day= 86400.0 s 
Table cut-offs 1: Elevation (-90.0deg=NO ),Airmass (>38.000=NO), Daylight (YES)
Table cut-offs 2: Solar elongation (  0.0,180.0=NO ),Local Hour Angle( 0.0=NO )
Table cut-offs 3: RA/DEC angular rate (     0.0=NO )                           
*******************************************************************************
Initial IAU76/J2000 heliocentric ecliptic osculating elements (au, days, deg.):
  EPOCH=  2458962.5 ! 2020-Apr-23.00 (TDB)         Residual RMS= .087367       
   EC= .1691367762722357   QR= .9358500167919792   TP= 2458809.0997793972      
   OM= 36.58853997425776   W=  304.3228784920618   IN= 3.701146998496158       
  Equivalent ICRF heliocentric cartesian coordinates (au, au/d):
   X=-6.479543737333916E-01  Y= 9.538692942598190E-01  Z= 5.016232001756915E-01
  VX=-1.316843360643849E-02 VY=-5.467047892625660E-03 VZ=-2.149198049185293E-03
Asteroid physical parameters (km, seconds, rotational period in hours):        
   GM= n.a.                RAD= n.a.               ROTPER= n.a.                
   H= 26.34                G= .150                 B-V= n.a.                   
                           ALBEDO= n.a.            STYP= n.a.                  
*******************************************************************************
 Date__(UT)__HR:MN     R.A._________(ICRF)_________DEC
******************************************************
$$SOE
 2018-Sep-26 12:36  m  14 25 24.128274 -36 10 01.47417
 2018-Sep-26 12:37  m  14 25 24.205938 -36 10 02.13676
 2018-Sep-26 12:38  m  14 25 24.283597 -36 10 02.80030
 2018-Sep-26 12:39  m  14 25 24.361251 -36 10 03.46477
 2018-Sep-26 12:40  m  14 25 24.438898 -36 10 04.13019
 2018-Sep-26 12:41  m  14 25 24.516539 -36 10 04.79655
 2018-Sep-26 12:42  m  14 25 24.594173 -36 10 05.46385
 2018-Sep-26 12:43  m  14 25 24.671800 -36 10 06.13209
 2018-Sep-26 12:44  m  14 25 24.749418 -36 10 06.80128
 2018-Sep-26 12:45  m  14 25 24.827027 -36 10 07.47140
 2018-Sep-26 12:46  m  14 25 24.904627 -36 10 08.14246
 2018-Sep-26 12:47  m  14 25 24.982217 -36 10 08.81446
 2018-Sep-26 12:48  m  14 25 25.059796 -36 10 09.48740
 2018-Sep-26 12:49  m  14 25 25.137364 -36 10 10.16129
 2018-Sep-26 12:50  m  14 25 25.214920 -36 10 10.83611
 2018-Sep-26 12:51  m  14 25 25.292465 -36 10 11.51186
 2018-Sep-26 12:52  m  14 25 25.369996 -36 10 12.18856
 2018-Sep-26 12:53  m  14 25 25.447514 -36 10 12.86620
 2018-Sep-26 12:54  m  14 25 25.525017 -36 10 13.54477
 2018-Sep-26 12:55  m  14 25 25.602507 -36 10 14.22428
 2018-Sep-26 12:56  m  14 25 25.679981 -36 10 14.90473
 2018-Sep-26 12:57  m  14 25 25.757439 -36 10 15.58611
 2018-Sep-26 12:58  m  14 25 25.834881 -36 10 16.26843
 2018-Sep-26 12:59  m  14 25 25.912306 -36 10 16.95168
 2018-Sep-26 13:00  m  14 25 25.989714 -36 10 17.63587
 2018-Sep-26 13:01  m  14 25 26.067104 -36 10 18.32099
 2018-Sep-26 13:02  m  14 25 26.144475 -36 10 19.00705
 2018-Sep-26 13:03  m  14 25 26.221827 -36 10 19.69404
 2018-Sep-26 13:04  m  14 25 26.299159 -36 10 20.38196
 2018-Sep-26 13:05  m  14 25 26.376471 -36 10 21.07082
 2018-Sep-26 13:06  m  14 25 26.453762 -36 10 21.76060
 2018-Sep-26 13:07  m  14 25 26.531031 -36 10 22.45132
 2018-Sep-26 13:08  m  14 25 26.608279 -36 10 23.14297
 2018-Sep-26 13:09  m  14 25 26.685503 -36 10 23.83555
 2018-Sep-26 13:10  m  14 25 26.762705 -36 10 24.52905
 2018-Sep-26 13:11  m  14 25 26.839883 -36 10 25.22349
 2018-Sep-26 13:12  m  14 25 26.917037 -36 10 25.91885
 2018-Sep-26 13:13  m  14 25 26.994166 -36 10 26.61514
 2018-Sep-26 13:14  m  14 25 27.071269 -36 10 27.31235
 2018-Sep-26 13:15  m  14 25 27.148347 -36 10 28.01049
 2018-Sep-26 13:16  m  14 25 27.225397 -36 10 28.70956
 2018-Sep-26 13:17  m  14 25 27.302421 -36 10 29.40955
 2018-Sep-26 13:18  m  14 25 27.379417 -36 10 30.11046
 2018-Sep-26 13:19  m  14 25 27.456385 -36 10 30.81229
 2018-Sep-26 13:20  m  14 25 27.533324 -36 10 31.51505
 2018-Sep-26 13:21  m  14 25 27.610233 -36 10 32.21872
 2018-Sep-26 13:22  m  14 25 27.687113 -36 10 32.92332
 2018-Sep-26 13:23  m  14 25 27.763962 -36 10 33.62883
 2018-Sep-26 13:24  m  14 25 27.840780 -36 10 34.33526
 2018-Sep-26 13:25  m  14 25 27.917566 -36 10 35.04261
 2018-Sep-26 13:26  m  14 25 27.994320 -36 10 35.75088
 2018-Sep-26 13:27  m  14 25 28.071041 -36 10 36.46006
 2018-Sep-26 13:28  m  14 25 28.147729 -36 10 37.17015
 2018-Sep-26 13:29  m  14 25 28.224383 -36 10 37.88115
 2018-Sep-26 13:30  m  14 25 28.301003 -36 10 38.59307
 2018-Sep-26 13:31  m  14 25 28.377588 -36 10 39.30590
 2018-Sep-26 13:32  m  14 25 28.454137 -36 10 40.01964
 2018-Sep-26 13:33  m  14 25 28.530650 -36 10 40.73428
 2018-Sep-26 13:34  m  14 25 28.607126 -36 10 41.44984
 2018-Sep-26 13:35  m  14 25 28.683565 -36 10 42.16630
 2018-Sep-26 13:36  m  14 25 28.759966 -36 10 42.88366
 2018-Sep-26 13:37  m  14 25 28.836329 -36 10 43.60193
 2018-Sep-26 13:38  m  14 25 28.912653 -36 10 44.32111
 2018-Sep-26 13:39  m  14 25 28.988937 -36 10 45.04118
 2018-Sep-26 13:40  m  14 25 29.065182 -36 10 45.76216
 2018-Sep-26 13:41  m  14 25 29.141385 -36 10 46.48403
 2018-Sep-26 13:42  m  14 25 29.217548 -36 10 47.20681
 2018-Sep-26 13:43  m  14 25 29.293669 -36 10 47.93048
 2018-Sep-26 13:44  m  14 25 29.369748 -36 10 48.65504
 2018-Sep-26 13:45  m  14 25 29.445784 -36 10 49.38050
 2018-Sep-26 13:46  m  14 25 29.521777 -36 10 50.10685
 2018-Sep-26 13:47  m  14 25 29.597726 -36 10 50.83410
 2018-Sep-26 13:48  m  14 25 29.673631 -36 10 51.56224
 2018-Sep-26 13:49  m  14 25 29.749490 -36 10 52.29126
 2018-Sep-26 13:50  m  14 25 29.825304 -36 10 53.02117
 2018-Sep-26 13:51  m  14 25 29.901073 -36 10 53.75197
 2018-Sep-26 13:52  m  14 25 29.976794 -36 10 54.48365
 2018-Sep-26 13:53  m  14 25 30.052468 -36 10 55.21622
 2018-Sep-26 13:54  m  14 25 30.128095 -36 10 55.94967
 2018-Sep-26 13:55  m  14 25 30.203674 -36 10 56.68400
 2018-Sep-26 13:56  m  14 25 30.279203 -36 10 57.41921
 2018-Sep-26 13:57  m  14 25 30.354684 -36 10 58.15529
 2018-Sep-26 13:58  m  14 25 30.430114 -36 10 58.89226
 2018-Sep-26 13:59  m  14 25 30.505495 -36 10 59.63009
 2018-Sep-26 14:00  m  14 25 30.580824 -36 11 00.36880
 2018-Sep-26 14:01  m  14 25 30.656102 -36 11 01.10839
 2018-Sep-26 14:02  m  14 25 30.731328 -36 11 01.84884
 2018-Sep-26 14:03  m  14 25 30.806501 -36 11 02.59016
 2018-Sep-26 14:04  m  14 25 30.881621 -36 11 03.33234
 2018-Sep-26 14:05  m  14 25 30.956688 -36 11 04.07540
 2018-Sep-26 14:06  m  14 25 31.031701 -36 11 04.81931
 2018-Sep-26 14:07  m  14 25 31.106659 -36 11 05.56409
 2018-Sep-26 14:08  m  14 25 31.181562 -36 11 06.30973
 2018-Sep-26 14:09  m  14 25 31.256409 -36 11 07.05622
 2018-Sep-26 14:10  m  14 25 31.331200 -36 11 07.80357
 2018-Sep-26 14:11  m  14 25 31.405935 -36 11 08.55178
 2018-Sep-26 14:12  m  14 25 31.480612 -36 11 09.30084
 2018-Sep-26 14:13  m  14 25 31.555231 -36 11 10.05076
 2018-Sep-26 14:14  m  14 25 31.629792 -36 11 10.80152
 2018-Sep-26 14:15  m  14 25 31.704294 -36 11 11.55313
 2018-Sep-26 14:16  m  14 25 31.778737 -36 11 12.30558
 2018-Sep-26 14:17  m  14 25 31.853119 -36 11 13.05889
 2018-Sep-26 14:18  m  14 25 31.927442 -36 11 13.81303
 2018-Sep-26 14:19  m  14 25 32.001703 -36 11 14.56801
 2018-Sep-26 14:20  m  14 25 32.075904 -36 11 15.32384
 2018-Sep-26 14:21  m  14 25 32.150042 -36 11 16.08050
 2018-Sep-26 14:22  m  14 25 32.224118 -36 11 16.83799
 2018-Sep-26 14:23  m  14 25 32.298130 -36 11 17.59632
 2018-Sep-26 14:24  m  14 25 32.372080 -36 11 18.35548
 2018-Sep-26 14:25  m  14 25 32.445965 -36 11 19.11547
 2018-Sep-26 14:26  m  14 25 32.519786 -36 11 19.87628
 2018-Sep-26 14:27  m  14 25 32.593542 -36 11 20.63792
 2018-Sep-26 14:28  m  14 25 32.667232 -36 11 21.40039
 2018-Sep-26 14:29  m  14 25 32.740856 -36 11 22.16367
 2018-Sep-26 14:30  m  14 25 32.814414 -36 11 22.92778
 2018-Sep-26 14:31  m  14 25 32.887905 -36 11 23.69270
 2018-Sep-26 14:32  m  14 25 32.961328 -36 11 24.45844
 2018-Sep-26 14:33  m  14 25 33.034684 -36 11 25.22499
 2018-Sep-26 14:34  m  14 25 33.107970 -36 11 25.99235
 2018-Sep-26 14:35  m  14 25 33.181188 -36 11 26.76052
 2018-Sep-26 14:36  m  14 25 33.254336 -36 11 27.52949
 2018-Sep-26 14:37  m  14 25 33.327414 -36 11 28.29927
 2018-Sep-26 14:38  m  14 25 33.400422 -36 11 29.06986
